IRIDIUM 150             
1 43257U 18030J   23356.94808474  .00000391  00000+0  13242-3 0  9993
2 43257  86.3962 309.6267 0002459  78.5828 281.5644 14.34217139300129
IRIDIUM 143             
1 43258U 18030K   23357.41745716  .00000524  00000+0  17990-3 0  9998
2 43258  86.3966 309.4869 0002146  79.7934 280.3503 14.34215767300153
IRIDIUM 161             
1 43478U 18047C   23356.83647946  .00000781  00000+0  22607-3 0  9997
2 43478  86.4494 107.7132 0002131  94.3490 265.7954 14.43274041294261
IRIDIUM 152             
1 43479U 18047D   23356.83201505  .00000169  00000+0  53376-4 0  9993
2 43479  86.3969 107.5745 0001711  91.8863 268.2529 14.34218040292435
IRIDIUM 147             
1 43480U 18047E   23356.83835750  .00000539  00000+0  18542-3 0  9996
2 43480  86.3971 107.5610 0002194 101.1974 258.9468 14.34219629292437
IRIDIUM 110             
1 43481U 18047F   23356.84469121  .00000481  00000+0  16475-3 0  9992
2 43481  86.3972 107.6262 0002375  95.4558 264.6908 14.34214333292426
IRIDIUM 162             
1 43482U 18047G   23357.38485801  .00000755  00000+0  21844-3 0  9996
2 43482  86.4493 107.3864 0002165  94.4366 265.7083 14.43273032294333
IRIDIUM 160             
1 43569U 18061A   23357.27891563  .00000367  00000+0  12400-3 0  9999
2 43569  86.3966  75.7996 0001859 106.7570 253.3830 14.34216442283388
